{
    "ASAM9442converted.jpg": {
        "city": "Fontana",
        "state": "CA",
        "zipcode": "92337",
        "Street": "10681 Production Ave",
        "location_name": "Fontana, CA"
    },
    "ASAM9443converted.jpg": {
        "city": "Fontana",
        "state": "CA",
        "zipcode": "92337",
        "Street": "10681 Production Ave",
        "location_name": "Fontana, CA"
    },
    "ASAM9444converted.jpg": {
        "city": "Fontana",
        "state": "CA",
        "zipcode": "92337",
        "Street": "10681 Production Ave",
        "location_name": "Fontana, CA"
    },
    "ASAM9445converted.jpg": {
        "city": "Fontana",
        "state": "CA",
        "zipcode": "92337",
        "Street": "10681 Production Ave",
        "location_name": "Fontana, CA"
    },
    "ASAM9446converted.jpg": {
        "city": "Fontana",
        "state": "CA",
        "zipcode": "92337",
        "Street": "10681 Production Ave",
        "location_name": "Fontana, CA"
    },
    "ASAM9447converted.jpg": {
        "city": "Fontana",
        "state": "CA",
        "zipcode": "92337",
        "Street": "10681 Production Ave",
        "location_name": "Fontana, CA"
    },
    "ASAM9448converted.jpg": {
        "city": "Fontana",
        "state": "CA",
        "zipcode": "92337",
        "Street": "10681 Production Ave",
        "location_name": "Fontana, CA"
    },
    "ASAM9449converted.jpg": {
        "city": "Fontana",
        "state": "CA",
        "zipcode": "92337",
        "Street": "10681 Production Ave",
        "location_name": "Fontana, CA"
    },
    "ASAM9450converted.jpg": {
        "city": "Fontana",
        "state": "CA",
        "zipcode": "92337",
        "Street": "10681 Production Ave",
        "location_name": "Fontana, CA"
    },
    "ASAM9451converted.jpg": {
        "city": "Fontana",
        "state": "CA",
        "zipcode": "92337",
        "Street": "10681 Production Ave",
        "location_name": "Fontana, CA"
    },
    "ASAM9452converted.jpg": {
        "city": "Fontana",
        "state": "CA",
        "zipcode": "92337",
        "Street": "10681 Production Ave",
        "location_name": "Fontana, CA"
    },
    "ASAM9453converted.jpg": {
        "city": "Fontana",
        "state": "CA",
        "zipcode": "92337",
        "Street": "10681 Production Ave",
        "location_name": "Fontana, CA"
    },
    "ASAM9454converted.jpg": {
        "city": "Fontana",
        "state": "CA",
        "zipcode": "92337",
        "Street": "10681 Production Ave",
        "location_name": "Fontana, CA"
    },
    "ASAM9455converted.jpg": {
        "city": "Fontana",
        "state": "CA",
        "zipcode": "92337",
        "Street": "10681 Production Ave",
        "location_name": "Fontana, CA"
    },
    "ASAM9456converted.jpg": {
        "city": "Fontana",
        "state": "CA",
        "zipcode": "92337",
        "Street": "10681 Production Ave",
        "location_name": "Fontana, CA"
    },
    "ASAM9457converted.jpg": {
        "city": "Fontana",
        "state": "CA",
        "zipcode": "92337",
        "Street": "10681 Production Ave",
        "location_name": "Fontana, CA"
    },
    "ASAM9458converted.jpg": {
        "city": "Fontana",
        "state": "CA",
        "zipcode": "92337",
        "Street": "10681 Production Ave",
        "location_name": "Fontana, CA"
    },
    "ASAM9459converted.jpg": {
        "city": "Fontana",
        "state": "CA",
        "zipcode": "92337",
        "Street": "10681 Production Ave",
        "location_name": "Fontana, CA"
    },
    "ASAM9460converted.jpg": {
        "city": "Fontana",
        "state": "CA",
        "zipcode": "92337",
        "Street": "10681 Production Ave",
        "location_name": "Fontana, CA"
    },
    "ASAM9461converted.jpg": {
        "city": "Fontana",
        "state": "CA",
        "zipcode": "92337",
        "Street": "10681 Production Ave",
        "location_name": "Fontana, CA"
    },
    "ASAM9462converted.jpg": {
        "city": "Fontana",
        "state": "CA",
        "zipcode": "92337",
        "Street": "10681 Production Ave",
        "location_name": "Fontana, CA"
    },
    "ASAM9463converted.jpg": {
        "city": "Fontana",
        "state": "CA",
        "zipcode": "92337",
        "Street": "10681 Production Ave",
        "location_name": "Fontana, CA"
    },
    "ASAM9464converted.jpg": {
        "city": "Fontana",
        "state": "CA",
        "zipcode": "92337",
        "Street": "10681 Production Ave",
        "location_name": "Fontana, CA"
    },
    "ASAM9465converted.jpg": {
        "city": "Fontana",
        "state": "CA",
        "zipcode": "92337",
        "Street": "10681 Production Ave",
        "location_name": "Fontana, CA"
    },
    "ASAM9466converted.jpg": {
        "city": "Fontana",
        "state": "CA",
        "zipcode": "92337",
        "Street": "10681 Production Ave",
        "location_name": "Fontana, CA"
    },
    "ASAM9467converted.jpg": {
        "city": "Fontana",
        "state": "CA",
        "zipcode": "92337",
        "Street": "10681 Production Ave",
        "location_name": "Fontana, CA"
    },
    "ASAM9468converted.jpg": {
        "city": "Fontana",
        "state": "CA",
        "zipcode": "92337",
        "Street": "10681 Production Ave",
        "location_name": "Fontana, CA"
    },
    "ASAM9469converted.jpg": {
        "city": "Fontana",
        "state": "CA",
        "zipcode": "92337",
        "Street": "10681 Production Ave",
        "location_name": "Fontana, CA"
    },
    "ASAM9470converted.jpg": {
        "city": "Fontana",
        "state": "CA",
        "zipcode": "92337",
        "Street": "10681 Production Ave",
        "location_name": "Fontana, CA"
    },
    "ASAM9471converted.jpg": {
        "city": "Fontana",
        "state": "CA",
        "zipcode": "92337",
        "Street": "10681 Production Ave",
        "location_name": "Fontana, CA"
    },
    "ASAM9472converted.jpg": {
        "city": "Fontana",
        "state": "CA",
        "zipcode": "92337",
        "Street": "10681 Production Ave",
        "location_name": "Fontana, CA"
    },
    "ASAM9473converted.jpg": {
        "city": "Fontana",
        "state": "CA",
        "zipcode": "92337",
        "Street": "10681 Production Ave",
        "location_name": "Fontana, CA"
    },
    "ASAM9474converted.jpg": {
        "city": "Fontana",
        "state": "CA",
        "zipcode": "92337",
        "Street": "10681 Production Ave",
        "location_name": "Fontana, CA"
    },
    "ASAM9475converted.jpg": {
        "city": "Fontana",
        "state": "CA",
        "zipcode": "92337",
        "Street": "10681 Production Ave",
        "location_name": "Fontana, CA"
    },
    "ASAM9476converted.jpg": {
        "city": "Fontana",
        "state": "CA",
        "zipcode": "92337",
        "Street": "10681 Production Ave",
        "location_name": "Fontana, CA"
    },
    "ASAM9477converted.jpg": {
        "city": "Fontana",
        "state": "CA",
        "zipcode": "92337",
        "Street": "10681 Production Ave",
        "location_name": "Fontana, CA"
    },
    "ASAM9478converted.jpg": {
        "city": "Fontana",
        "state": "CA",
        "zipcode": "92337",
        "Street": "10681 Production Ave",
        "location_name": "Fontana, CA"
    },
    "ASAM9479converted.jpg": {
        "city": "Fontana",
        "state": "CA",
        "zipcode": "92337",
        "Street": "10681 Production Ave",
        "location_name": "Fontana, CA"
    },
    "ASAM9480converted.jpg": {
        "city": "Fontana",
        "state": "CA",
        "zipcode": "92337",
        "Street": "10681 Production Ave",
        "location_name": "Fontana, CA"
    },
    "ASAM9481converted.jpg": {
        "city": "Fontana",
        "state": "CA",
        "zipcode": "92337",
        "Street": "10681 Production Ave",
        "location_name": "Fontana, CA"
    },
    "ASAM9482converted.jpg": {
        "city": "Fontana",
        "state": "CA",
        "zipcode": "92337",
        "Street": "10681 Production Ave",
        "location_name": "Fontana, CA"
    },
    "ASAM9483converted.jpg": {
        "city": "Fontana",
        "state": "CA",
        "zipcode": "92337",
        "Street": "10681 Production Ave",
        "location_name": "Fontana, CA"
    },
    "ASAM9484converted.jpg": {
        "city": "Fontana",
        "state": "CA",
        "zipcode": "92337",
        "Street": "10681 Production Ave",
        "location_name": "Fontana, CA"
    },
    "ASAM9485converted.jpg": {
        "city": "Fontana",
        "state": "CA",
        "zipcode": "92337",
        "Street": "10681 Production Ave",
        "location_name": "Fontana, CA"
    },
    "ASAM9486converted.jpg": {
        "city": "Fontana",
        "state": "CA",
        "zipcode": "92337",
        "Street": "10681 Production Ave",
        "location_name": "Fontana, CA"
    },
    "ASAM9487converted.jpg": {
        "city": "Fontana",
        "state": "CA",
        "zipcode": "92337",
        "Street": "10681 Production Ave",
        "location_name": "Fontana, CA"
    },
    "ASAM9488converted.jpg": {
        "city": "Fontana",
        "state": "CA",
        "zipcode": "92337",
        "Street": "10681 Production Ave",
        "location_name": "Fontana, CA"
    },
    "ASAM9489converted.jpg": {
        "city": "Fontana",
        "state": "CA",
        "zipcode": "92337",
        "Street": "10681 Production Ave",
        "location_name": "Fontana, CA"
    },
    "ASAM9490converted.jpg": {
        "city": "Fontana",
        "state": "CA",
        "zipcode": "92337",
        "Street": "10681 Production Ave",
        "location_name": "Fontana, CA"
    },
    "ASAM9491converted.jpg": {
        "city": "Fontana",
        "state": "CA",
        "zipcode": "92337",
        "Street": "10681 Production Ave",
        "location_name": "Fontana, CA"
    },
    "ASAM9492converted.jpg": {
        "city": "Fontana",
        "state": "CA",
        "zipcode": "92337",
        "Street": "10681 Production Ave",
        "location_name": "Fontana, CA"
    },
    "ASAM9493converted.jpg": {
        "city": "Fontana",
        "state": "CA",
        "zipcode": "92337",
        "Street": "10681 Production Ave",
        "location_name": "Fontana, CA"
    },
    "ASAM9494converted.jpg": {
        "city": "Fontana",
        "state": "CA",
        "zipcode": "92337",
        "Street": "10681 Production Ave",
        "location_name": "Fontana, CA"
    },
    "ASAM9495converted.jpg": {
        "city": "Fontana",
        "state": "CA",
        "zipcode": "92337",
        "Street": "10681 Production Ave",
        "location_name": "Fontana, CA"
    },
    "ASAM9496converted.jpg": {
        "city": "Fontana",
        "state": "CA",
        "zipcode": "92337",
        "Street": "10681 Production Ave",
        "location_name": "Fontana, CA"
    },
    "ASAM9497converted.jpg": {
        "city": "Fontana",
        "state": "CA",
        "zipcode": "92337",
        "Street": "10681 Production Ave",
        "location_name": "Fontana, CA"
    },
    "ASAM9498converted.jpg": {
        "city": "Fontana",
        "state": "CA",
        "zipcode": "92337",
        "Street": "10681 Production Ave",
        "location_name": "Fontana, CA"
    },
    "ASAM9499converted.jpg": {
        "city": "Fontana",
        "state": "CA",
        "zipcode": "92337",
        "Street": "10681 Production Ave",
        "location_name": "Fontana, CA"
    },
    "ASAM9500converted.jpg": {
        "city": "Fontana",
        "state": "CA",
        "zipcode": "92337",
        "Street": "10681 Production Ave",
        "location_name": "Fontana, CA"
    },
    "ASAM9501-Enhanced-NRconverted.jpg": {
        "city": "Fontana",
        "state": "CA",
        "zipcode": "92337",
        "Street": "10681 Production Ave",
        "location_name": "Fontana, CA"
    },
    "ASAM9501converted.jpg": {
        "city": "Fontana",
        "state": "CA",
        "zipcode": "92337",
        "Street": "10681 Production Ave",
        "location_name": "Fontana, CA"
    },
    "ASAM9502converted.jpg": {
        "city": "Fontana",
        "state": "CA",
        "zipcode": "92337",
        "Street": "10681 Production Ave",
        "location_name": "Fontana, CA"
    },
    "ASAM9503converted.jpg": {
        "city": "Fontana",
        "state": "CA",
        "zipcode": "92337",
        "Street": "10681 Production Ave",
        "location_name": "Fontana, CA"
    },
    "ASAM9504converted.jpg": {
        "city": "Fontana",
        "state": "CA",
        "zipcode": "92337",
        "Street": "10681 Production Ave",
        "location_name": "Fontana, CA"
    },
    "ASAM9505converted.jpg": {
        "city": "Fontana",
        "state": "CA",
        "zipcode": "92337",
        "Street": "10681 Production Ave",
        "location_name": "Fontana, CA"
    },
    "ASAM9506converted.jpg": {
        "city": "Fontana",
        "state": "CA",
        "zipcode": "92337",
        "Street": "10681 Production Ave",
        "location_name": "Fontana, CA"
    },
    "ASAM9507converted.jpg": {
        "city": "Fontana",
        "state": "CA",
        "zipcode": "92337",
        "Street": "10681 Production Ave",
        "location_name": "Fontana, CA"
    },
    "ASAM9508converted.jpg": {
        "city": "Fontana",
        "state": "CA",
        "zipcode": "92337",
        "Street": "10681 Production Ave",
        "location_name": "Fontana, CA"
    },
    "ASAM9509converted.jpg": {
        "city": "Fontana",
        "state": "CA",
        "zipcode": "92337",
        "Street": "10681 Production Ave",
        "location_name": "Fontana, CA"
    },
    "ASAM9510converted.jpg": {
        "city": "Fontana",
        "state": "CA",
        "zipcode": "92337",
        "Street": "10681 Production Ave",
        "location_name": "Fontana, CA"
    },
    "ASAM9511converted.jpg": {
        "city": "Fontana",
        "state": "CA",
        "zipcode": "92337",
        "Street": "10681 Production Ave",
        "location_name": "Fontana, CA"
    },
    "ASAM9512converted.jpg": {
        "city": "Fontana",
        "state": "CA",
        "zipcode": "92337",
        "Street": "10681 Production Ave",
        "location_name": "Fontana, CA"
    },
    "ASAM9513converted.jpg": {
        "city": "Fontana",
        "state": "CA",
        "zipcode": "92337",
        "Street": "10681 Production Ave",
        "location_name": "Fontana, CA"
    },
    "ASAM9514converted.jpg": {
        "city": "Fontana",
        "state": "CA",
        "zipcode": "92337",
        "Street": "10681 Production Ave",
        "location_name": "Fontana, CA"
    },
    "ASAM9515converted.jpg": {
        "city": "Fontana",
        "state": "CA",
        "zipcode": "92337",
        "Street": "10681 Production Ave",
        "location_name": "Fontana, CA"
    },
    "ASAM9516converted.jpg": {
        "city": "Fontana",
        "state": "CA",
        "zipcode": "92337",
        "Street": "10681 Production Ave",
        "location_name": "Fontana, CA"
    },
    "ASAM9517converted.jpg": {
        "city": "Fontana",
        "state": "CA",
        "zipcode": "92337",
        "Street": "10681 Production Ave",
        "location_name": "Fontana, CA"
    },
    "ASAM9518converted.jpg": {
        "city": "Fontana",
        "state": "CA",
        "zipcode": "92337",
        "Street": "10681 Production Ave",
        "location_name": "Fontana, CA"
    },
    "ASAM9519converted.jpg": {
        "city": "Fontana",
        "state": "CA",
        "zipcode": "92337",
        "Street": "10681 Production Ave",
        "location_name": "Fontana, CA"
    },
    "ASAM9520converted.jpg": {
        "city": "Fontana",
        "state": "CA",
        "zipcode": "92337",
        "Street": "10681 Production Ave",
        "location_name": "Fontana, CA"
    },
    "ASAM9521converted.jpg": {
        "city": "Fontana",
        "state": "CA",
        "zipcode": "92337",
        "Street": "10681 Production Ave",
        "location_name": "Fontana, CA"
    },
    "ASAM9522-Enhanced-NRconverted.jpg": {
        "city": "Fontana",
        "state": "CA",
        "zipcode": "92337",
        "Street": "10681 Production Ave",
        "location_name": "Fontana, CA"
    },
    "ASAM9522converted.jpg": {
        "city": "Fontana",
        "state": "CA",
        "zipcode": "92337",
        "Street": "10681 Production Ave",
        "location_name": "Fontana, CA"
    },
    "ASAM9523-Enhanced-NRconverted.jpg": {
        "city": "Fontana",
        "state": "CA",
        "zipcode": "92337",
        "Street": "10681 Production Ave",
        "location_name": "Fontana, CA"
    },
    "ASAM9523converted.jpg": {
        "city": "Fontana",
        "state": "CA",
        "zipcode": "92337",
        "Street": "10681 Production Ave",
        "location_name": "Fontana, CA"
    },
    "ASAM9524converted.jpg": {
        "city": "Fontana",
        "state": "CA",
        "zipcode": "92337",
        "Street": "10681 Production Ave",
        "location_name": "Fontana, CA"
    },
    "ASAM9525-Enhanced-NRconverted.jpg": {
        "city": "Fontana",
        "state": "CA",
        "zipcode": "92337",
        "Street": "10681 Production Ave",
        "location_name": "Fontana, CA"
    },
    "ASAM9525converted.jpg": {
        "city": "Fontana",
        "state": "CA",
        "zipcode": "92337",
        "Street": "10681 Production Ave",
        "location_name": "Fontana, CA"
    },
    "ASAM9526converted.jpg": {
        "city": "Fontana",
        "state": "CA",
        "zipcode": "92337",
        "Street": "10681 Production Ave",
        "location_name": "Fontana, CA"
    },
    "ASAM9527-Enhanced-NRconverted.jpg": {
        "city": "Fontana",
        "state": "CA",
        "zipcode": "92337",
        "Street": "10681 Production Ave",
        "location_name": "Fontana, CA"
    },
    "ASAM9527converted.jpg": {
        "city": "Fontana",
        "state": "CA",
        "zipcode": "92337",
        "Street": "10681 Production Ave",
        "location_name": "Fontana, CA"
    },
    "ASAM9528converted.jpg": {
        "city": "Fontana",
        "state": "CA",
        "zipcode": "92337",
        "Street": "10681 Production Ave",
        "location_name": "Fontana, CA"
    },
    "ASAM9529converted.jpg": {
        "city": "Fontana",
        "state": "CA",
        "zipcode": "92337",
        "Street": "10681 Production Ave",
        "location_name": "Fontana, CA"
    },
    "ASAM9530converted.jpg": {
        "city": "Fontana",
        "state": "CA",
        "zipcode": "92337",
        "Street": "10681 Production Ave",
        "location_name": "Fontana, CA"
    },
    "ASAM9531converted.jpg": {
        "city": "Fontana",
        "state": "CA",
        "zipcode": "92337",
        "Street": "10681 Production Ave",
        "location_name": "Fontana, CA"
    },
    "ASAM9532converted.jpg": {
        "city": "Fontana",
        "state": "CA",
        "zipcode": "92337",
        "Street": "10681 Production Ave",
        "location_name": "Fontana, CA"
    },
    "ASAM9533converted.jpg": {
        "city": "Fontana",
        "state": "CA",
        "zipcode": "92337",
        "Street": "10681 Production Ave",
        "location_name": "Fontana, CA"
    },
    "ASAM9534converted.jpg": {
        "city": "Fontana",
        "state": "CA",
        "zipcode": "92337",
        "Street": "10681 Production Ave",
        "location_name": "Fontana, CA"
    },
    "ASAM9535converted.jpg": {
        "city": "Fontana",
        "state": "CA",
        "zipcode": "92337",
        "Street": "10681 Production Ave",
        "location_name": "Fontana, CA"
    },
    "ASAM9536converted.jpg": {
        "city": "Fontana",
        "state": "CA",
        "zipcode": "92337",
        "Street": "10681 Production Ave",
        "location_name": "Fontana, CA"
    },
    "DJI_0529converted.jpg": {
        "city": "Fontana",
        "state": "CA",
        "zipcode": "92337",
        "Street": "10681 Production Ave",
        "location_name": "Fontana, CA"
    },
    "DJI_0532converted.jpg": {
        "city": "Fontana",
        "state": "CA",
        "zipcode": "92337",
        "Street": "10681 Production Ave",
        "location_name": "Fontana, CA"
    },
    "DJI_0533converted.jpg": {
        "city": "Fontana",
        "state": "CA",
        "zipcode": "92337",
        "Street": "10681 Production Ave",
        "location_name": "Fontana, CA"
    },
    "DJI_0535converted.jpg": {
        "city": "Fontana",
        "state": "CA",
        "zipcode": "92337",
        "Street": "10681 Production Ave",
        "location_name": "Fontana, CA"
    },
    "DJI_0539converted.jpg": {
        "city": "Fontana",
        "state": "CA",
        "zipcode": "92337",
        "Street": "10681 Production Ave",
        "location_name": "Fontana, CA"
    },
    "DJI_0540converted.jpg": {
        "city": "Fontana",
        "state": "CA",
        "zipcode": "92337",
        "Street": "10681 Production Ave",
        "location_name": "Fontana, CA"
    },
    "DJI_0542converted.jpg": {
        "city": "Fontana",
        "state": "CA",
        "zipcode": "92337",
        "Street": "10681 Production Ave",
        "location_name": "Fontana, CA"
    },
    "DJI_0543converted.jpg": {
        "city": "Fontana",
        "state": "CA",
        "zipcode": "92337",
        "Street": "10681 Production Ave",
        "location_name": "Fontana, CA"
    },
    "DJI_0549converted.jpg": {
        "city": "Fontana",
        "state": "CA",
        "zipcode": "92337",
        "Street": "10681 Production Ave",
        "location_name": "Fontana, CA"
    },
    "DJI_0550converted.jpg": {
        "city": "Fontana",
        "state": "CA",
        "zipcode": "92337",
        "Street": "10681 Production Ave",
        "location_name": "Fontana, CA"
    },
    "DJI_0558converted.jpg": {
        "city": "Fontana",
        "state": "CA",
        "zipcode": "92337",
        "Street": "10681 Production Ave",
        "location_name": "Fontana, CA"
    },
    "DJI_0559converted.jpg": {
        "city": "Fontana",
        "state": "CA",
        "zipcode": "92337",
        "Street": "10681 Production Ave",
        "location_name": "Fontana, CA"
    },
    "DJI_0560converted.jpg": {
        "city": "Fontana",
        "state": "CA",
        "zipcode": "92337",
        "Street": "10681 Production Ave",
        "location_name": "Fontana, CA"
    },
    "DJI_0562converted.jpg": {
        "city": "Fontana",
        "state": "CA",
        "zipcode": "92337",
        "Street": "10681 Production Ave",
        "location_name": "Fontana, CA"
    },
    "DJI_0563converted.jpg": {
        "city": "Fontana",
        "state": "CA",
        "zipcode": "92337",
        "Street": "10681 Production Ave",
        "location_name": "Fontana, CA"
    },
    "DJI_0565converted.jpg": {
        "city": "Fontana",
        "state": "CA",
        "zipcode": "92337",
        "Street": "10681 Production Ave",
        "location_name": "Fontana, CA"
    },
    "DJI_0569converted.jpg": {
        "city": "Fontana",
        "state": "CA",
        "zipcode": "92337",
        "Street": "10681 Production Ave",
        "location_name": "Fontana, CA"
    },
    "DJI_0574converted.jpg": {
        "city": "Fontana",
        "state": "CA",
        "zipcode": "92337",
        "Street": "10681 Production Ave",
        "location_name": "Fontana, CA"
    },
    "DJI_0575converted.jpg": {
        "city": "Fontana",
        "state": "CA",
        "zipcode": "92337",
        "Street": "10681 Production Ave",
        "location_name": "Fontana, CA"
    },
    "DJI_0577converted.jpg": {
        "city": "Fontana",
        "state": "CA",
        "zipcode": "92337",
        "Street": "10681 Production Ave",
        "location_name": "Fontana, CA"
    },
    "DJI_0578converted.jpg": {
        "city": "Fontana",
        "state": "CA",
        "zipcode": "92337",
        "Street": "10681 Production Ave",
        "location_name": "Fontana, CA"
    },
    "DJI_0580converted.jpg": {
        "city": "Fontana",
        "state": "CA",
        "zipcode": "92337",
        "Street": "10681 Production Ave",
        "location_name": "Fontana, CA"
    },
    "DJI_0582converted.jpg": {
        "city": "Fontana",
        "state": "CA",
        "zipcode": "92337",
        "Street": "10681 Production Ave",
        "location_name": "Fontana, CA"
    },
    "DJI_0583converted.jpg": {
        "city": "Fontana",
        "state": "CA",
        "zipcode": "92337",
        "Street": "10681 Production Ave",
        "location_name": "Fontana, CA"
    },
    "DJI_0584converted.jpg": {
        "city": "Fontana",
        "state": "CA",
        "zipcode": "92337",
        "Street": "10681 Production Ave",
        "location_name": "Fontana, CA"
    },
    "DJI_0585converted.jpg": {
        "city": "Fontana",
        "state": "CA",
        "zipcode": "92337",
        "Street": "10681 Production Ave",
        "location_name": "Fontana, CA"
    },
    "DJI_0586converted.jpg": {
        "city": "Fontana",
        "state": "CA",
        "zipcode": "92337",
        "Street": "10681 Production Ave",
        "location_name": "Fontana, CA"
    },
    "DJI_0589converted.jpg": {
        "city": "Fontana",
        "state": "CA",
        "zipcode": "92337",
        "Street": "10681 Production Ave",
        "location_name": "Fontana, CA"
    },
    "DJI_0591converted.jpg": {
        "city": "Fontana",
        "state": "CA",
        "zipcode": "92337",
        "Street": "10681 Production Ave",
        "location_name": "Fontana, CA"
    },
    "DJI_0592converted.jpg": {
        "city": "Fontana",
        "state": "CA",
        "zipcode": "92337",
        "Street": "10681 Production Ave",
        "location_name": "Fontana, CA"
    },
    "DJI_0594converted.jpg": {
        "city": "Fontana",
        "state": "CA",
        "zipcode": "92337",
        "Street": "10681 Production Ave",
        "location_name": "Fontana, CA"
    },
    "DJI_0597converted.jpg": {
        "city": "Fontana",
        "state": "CA",
        "zipcode": "92337",
        "Street": "10681 Production Ave",
        "location_name": "Fontana, CA"
    },
    "DJI_0598converted.jpg": {
        "city": "Fontana",
        "state": "CA",
        "zipcode": "92337",
        "Street": "10681 Production Ave",
        "location_name": "Fontana, CA"
    },
    "DJI_0604converted.jpg": {
        "city": "Fontana",
        "state": "CA",
        "zipcode": "92337",
        "Street": "10681 Production Ave",
        "location_name": "Fontana, CA"
    },
    "DJI_0606converted.jpg": {
        "city": "Fontana",
        "state": "CA",
        "zipcode": "92337",
        "Street": "10681 Production Ave",
        "location_name": "Fontana, CA"
    },
    "DJI_0607converted.jpg": {
        "city": "Fontana",
        "state": "CA",
        "zipcode": "92337",
        "Street": "10681 Production Ave",
        "location_name": "Fontana, CA"
    },
    "DJI_0611converted.jpg": {
        "city": "Fontana",
        "state": "CA",
        "zipcode": "92337",
        "Street": "10681 Production Ave",
        "location_name": "Fontana, CA"
    },
    "DJI_0612converted.jpg": {
        "city": "Fontana",
        "state": "CA",
        "zipcode": "92337",
        "Street": "10681 Production Ave",
        "location_name": "Fontana, CA"
    },
    "DJI_0613converted.jpg": {
        "city": "Fontana",
        "state": "CA",
        "zipcode": "92337",
        "Street": "10681 Production Ave",
        "location_name": "Fontana, CA"
    },
    "DJI_0614converted.jpg": {
        "city": "Fontana",
        "state": "CA",
        "zipcode": "92337",
        "Street": "10681 Production Ave",
        "location_name": "Fontana, CA"
    },
    "DJI_0615converted.jpg": {
        "city": "Fontana",
        "state": "CA",
        "zipcode": "92337",
        "Street": "10681 Production Ave",
        "location_name": "Fontana, CA"
    },
    "DJI_0618converted.jpg": {
        "city": "Fontana",
        "state": "CA",
        "zipcode": "92337",
        "Street": "10681 Production Ave",
        "location_name": "Fontana, CA"
    },
    "interior_office_10681productionave_fontana_10681_3.jpg": {
        "city": "Fontana",
        "state": "CA",
        "zipcode": "92337",
        "Street": "10681 Production Ave",
        "location_name": "Fontana, CA"
    }
}